NORAD_CAT_ID,OBJECT_NAME,OBJECT_TYPE,EPOCH,MEAN_MOTION,ECCENTRICITY,INCLINATION,RA_OF_ASC_NODE,ARG_OF_PERICENTER,MEAN_ANOMALY,BSTAR,MEAN_MOTION_DOT,MEAN_MOTION_DDOT,TLE_LINE0,TLE_LINE1,TLE_LINE2,SEMIMAJOR_AXIS,PERIOD,APOGEE,PERIGEE,DECAYED
52538.0,STARLINK-3933,PAYLOAD,2023-05-14 04:45:56,15.08838631,0.000115,53.2175,75.1719,85.5041,274.6083,4.8665e-05,4.87e-06,0.0,0 STARLINK-3933,1 52538U 22051F   23134.19857568  .00000487  00000-0  48665-4 0  9997,2 52538  53.2175  75.1719 0001150  85.5041 274.6083 15.08838631 55944,6917.885,95.438,540.545,538.954,0.0
52538.0,STARLINK-3933,PAYLOAD,2023-05-15 12:33:39,15.08845643,0.0001104,53.2172,69.2237,88.9566,271.1553,0.00015356,2.157e-05,0.0,0 STARLINK-3933,1 52538U 22051F   23135.52336925  .00002157  00000-0  15356-3 0  9990,2 52538  53.2172  69.2237 0001104  88.9566 271.1553 15.08845643 56146,6917.863,95.437,540.492,538.964,0.0
52538.0,STARLINK-3933,PAYLOAD,2023-05-16 02:52:08,15.08834096,0.0001458,53.2183,66.5482,89.1879,270.928,-2.5751e-05,-6.98e-06,0.0,0 STARLINK-3933,1 52538U 22051F   23136.11953961 -.00000698  00000-0 -25751-4 0  9992,2 52538  53.2183  66.5482 0001458  89.1879 270.9280 15.08834096 56236,6917.898,95.438,540.772,538.755,0.0
52538.0,STARLINK-3933,PAYLOAD,2023-05-17 02:42:54,15.08850341,0.0001221,53.2176,62.0873,92.9739,267.1393,0.00015736,2.218e-05,0.0,0 STARLINK-3933,1 52538U 22051F   23137.11313210  .00002218  00000-0  15736-3 0  9999,2 52538  53.2176  62.0873 0001221  92.9739 267.1393 15.08850341 56388,6917.849,95.437,540.558,538.869,0.0
52538.0,STARLINK-3933,PAYLOAD,2023-05-18 00:58:19,15.08833344,0.0001268,53.2178,57.9242,85.7292,274.3845,7.863e-05,9.64e-06,0.0,0 STARLINK-3933,1 52538U 22051F   23138.04050310  .00000964  00000-0  78630-4 0  9990,2 52538  53.2178  57.9242 0001268  85.7292 274.3845 15.08833344 56520,6917.901,95.438,540.643,538.889,0.0
52538.0,STARLINK-3933,PAYLOAD,2023-05-19 03:59:52,15.08850325,0.0001253,53.218,52.8683,87.9472,272.1664,0.00017491,2.498e-05,0.0,0 STARLINK-3933,1 52538U 22051F   23139.16657424  .00002498  00000-0  17491-3 0  9994,2 52538  53.2180  52.8683 0001253  87.9472 272.1664 15.08850325 56695,6917.849,95.437,540.581,538.847,0.0
52538.0,STARLINK-3933,PAYLOAD,2023-05-19 21:29:07,15.08838164,0.0001348,53.2187,49.5933,98.9506,261.1639,0.00019372,2.796e-05,0.0,0 STARLINK-3933,1 52538U 22051F   23139.89522123  .00002796  00000-0  19372-3 0  9992,2 52538  53.2187  49.5933 0001348  98.9506 261.1639 15.08838164 56730,6917.886,95.438,540.684,538.818,0.0
52538.0,STARLINK-3933,PAYLOAD,2023-05-20 00:39:53,15.08843618,0.000122,53.2191,49.0015,95.0045,265.1086,0.00012133,1.644e-05,0.0,0 STARLINK-3933,1 52538U 22051F   23140.02769680  .00001644  00000-0  12133-3 0  9999,2 52538  53.2191  49.0015 0001220  95.0045 265.1086 15.08843618 56826,6917.869,95.437,540.578,538.89,0.0
52538.0,STARLINK-3933,PAYLOAD,2023-05-20 18:09:07,15.08851063,0.0001092,53.2176,45.733,92.6554,267.4563,0.0002194,3.207e-05,0.0,0 STARLINK-3933,1 52538U 22051F   23140.75633170  .00003207  00000-0  21940-3 0  9996,2 52538  53.2176  45.7330 0001092  92.6554 267.4563 15.08851063 56869,6917.847,95.437,540.467,538.956,0.0
52538.0,STARLINK-3933,PAYLOAD,2023-05-21 00:30:38,15.08865476,0.0001113,53.218,44.5438,97.0005,263.1114,0.000292,4.366e-05,0.0,0 STARLINK-3933,1 52538U 22051F   23141.02128213  .00004366  00000-0  29200-3 0  9998,2 52538  53.2180  44.5438 0001113  97.0005 263.1114 15.08865476 56974,6917.803,95.436,540.437,538.898,0.0
52538.0,STARLINK-3933,PAYLOAD,2023-05-21 17:59:54,15.0883044,0.0001136,53.2181,41.2728,90.1567,269.9556,-0.00020914,-3.614e-05,0.0,0 STARLINK-3933,1 52538U 22051F   23141.74993968 -.00003614  00000-0 -20914-3 0  9994,2 52538  53.2181  41.2728 0001136  90.1567 269.9556 15.08830440 57083,6917.91,95.438,540.56,538.989,0.0
52538.0,STARLINK-3933,PAYLOAD,2023-05-22 00:21:28,15.08813655,6.23e-05,53.218,40.0832,58.3134,301.7919,-0.00044188,-7.308e-05,0.0,0 STARLINK-3933,1 52538U 22051F   23142.01490805 -.00007308  00000-0 -44188-3 0  9990,2 52538  53.2180  40.0832 0000623  58.3134 301.7919 15.08813655 57123,6917.961,95.439,540.257,539.395,0.0
52538.0,STARLINK-3933,PAYLOAD,2023-05-22 09:53:47,15.08823315,0.0001054,53.2184,38.2998,86.1079,274.0033,-0.00012598,-2.291e-05,0.0,0 STARLINK-3933,1 52538U 22051F   23142.41235012 -.00002291  00000-0 -12598-3 0  9997,2 52538  53.2184  38.2998 0001054  86.1079 274.0033 15.08823315 57184,6917.931,95.439,540.526,539.067,0.0
52538.0,STARLINK-3933,PAYLOAD,2023-05-22 17:50:42,15.08828412,9.03e-05,53.2173,36.8101,69.0755,291.0334,4.2136e-05,3.83e-06,0.0,0 STARLINK-3933,1 52538U 22051F   23142.74355211  .00000383  00000-0  42136-4 0  9997,2 52538  53.2173  36.8101 0000903  69.0755 291.0334 15.08828412 57169,6917.916,95.438,540.405,539.156,0.0
52538.0,STARLINK-3933,PAYLOAD,2023-05-23 01:47:38,15.08839747,0.0001016,53.2176,35.3265,82.7003,277.4104,0.0010316,0.00016168,0.0,0 STARLINK-3933,1 52538U 22051F   23143.07475678  .00016168  00000-0  10316-2 0  9995,2 52538  53.2176  35.3265 0001016  82.7003 277.4104 15.08839747 57280,6917.881,95.438,540.449,539.043,0.0
52538.0,STARLINK-3933,PAYLOAD,2023-05-24 00:03:01,15.08871132,9.85e-05,53.2175,31.1639,84.9463,275.1642,0.00098451,0.00015429,0.0,0 STARLINK-3933,1 52538U 22051F   23144.00210566  .00015429  00000-0  98451-3 0  9998,2 52538  53.2175  31.1639 0000985  84.9463 275.1642 15.08871132 57350,6917.785,95.436,540.332,538.969,0.0
52538.0,STARLINK-3933,PAYLOAD,2023-05-25 15:47:40,15.08846903,9.81e-05,53.2175,23.7274,85.5608,274.5496,0.00037597,5.702e-05,0.0,0 STARLINK-3933,1 52538U 22051F   23145.65810794  .00005702  00000-0  37597-3 0  9996,2 52538  53.2175  23.7274 0000981  85.5608 274.5496 15.08846903 57679,6917.859,95.437,540.403,539.046,0.0
52538.0,STARLINK-3933,PAYLOAD,2023-05-25 22:09:12,15.08852146,0.0001003,53.2169,22.5395,80.4077,279.7029,0.00049416,7.588e-05,0.0,0 STARLINK-3933,1 52538U 22051F   23145.92306559  .00007588  00000-0  49416-3 0  9992,2 52538  53.2169  22.5395 0001003  80.4077 279.7029 15.08852146 57645,6917.843,95.437,540.402,539.014,0.0
52538.0,STARLINK-3933,PAYLOAD,2023-05-26 18:49:13,15.08839801,0.0001211,53.2172,18.6749,62.077,298.0345,7.2027e-05,8.59e-06,0.0,0 STARLINK-3933,1 52538U 22051F   23146.78418923  .00000859  00000-0  72027-4 0  9995,2 52538  53.2172  18.6749 0001211  62.0770 298.0345 15.08839801 57845,6917.881,95.438,540.584,538.908,0.0
52538.0,STARLINK-3933,PAYLOAD,2023-05-26 22:00:00,15.08838496,0.00012,53.2175,18.0803,62.085,298.0264,6.2125e-05,7.01e-06,0.0,0 STARLINK-3933,1 52538U 22051F   23146.91667035  .00000701  00000-0  62125-4 0  9994,2 52538  53.2175  18.0803 0001200  62.0850 298.0264 15.08838496 57793,6917.885,95.438,540.58,538.92,0.0
52538.0,STARLINK-3933,PAYLOAD,2023-05-27 20:15:24,15.08841982,0.0001121,53.2191,13.9171,94.4151,265.6969,2.1381e-05,5.3e-07,0.0,0 STARLINK-3933,1 52538U 22051F   23147.84402823  .00000053  00000-0  21381-4 0  9998,2 52538  53.2191  13.9171 0001121  94.4151 265.6969 15.08841982 58009,6917.874,95.437,540.515,538.964,0.0
52538.0,STARLINK-3933,PAYLOAD,2023-05-27 21:50:47,15.08843835,0.0001072,53.2189,13.6198,90.4442,269.6673,3.2141e-05,2.24e-06,0.0,0 STARLINK-3933,1 52538U 22051F   23147.91026642  .00000224  00000-0  32141-4 0  9993,2 52538  53.2189  13.6198 0001072  90.4442 269.6673 15.08843835 57943,6917.869,95.437,540.475,538.992,0.0
52538.0,STARLINK-3933,PAYLOAD,2023-05-28 01:01:33,15.08845062,0.0001038,53.2185,13.0243,88.6223,271.4888,3.3541e-05,2.46e-06,0.0,0 STARLINK-3933,1 52538U 22051F   23148.04274504  .00000246  00000-0  33541-4 0  9999,2 52538  53.2185  13.0243 0001038  88.6223 271.4888 15.08845062 57967,6917.865,95.437,540.448,539.012,0.0
52538.0,STARLINK-3933,PAYLOAD,2023-05-28 21:41:33,15.08843916,0.0001016,53.2186,9.1583,86.0165,274.0943,0.00014198,1.973e-05,0.0,0 STARLINK-3933,1 52538U 22051F   23148.90386394  .00001973  00000-0  14198-3 0  9999,2 52538  53.2186   9.1583 0001016  86.0165 274.0943 15.08843916 58096,6917.868,95.437,540.436,539.031,0.0
52538.0,STARLINK-3933,PAYLOAD,2023-05-29 13:35:25,15.08836065,0.0001066,53.2191,6.1893,94.7158,265.3955,7.3035e-05,8.75e-06,0.0,0 STARLINK-3933,1 52538U 22051F   23149.56627108  .00000875  00000-0  73035-4 0  9999,2 52538  53.2191   6.1893 0001066  94.7158 265.3955 15.08836065 58190,6917.892,95.438,540.495,539.02,0.0
52538.0,STARLINK-3933,PAYLOAD,2023-05-29 21:32:21,15.08832389,9.94e-05,53.2189,4.7003,90.339,269.7716,2.0427e-05,3.7e-07,0.0,0 STARLINK-3933,1 52538U 22051F   23149.89747649  .00000037  00000-0  20427-4 0  9995,2 52538  53.2189   4.7003 0000994  90.3390 269.7716 15.08832389 58247,6917.904,95.438,540.456,539.081,0.0
52538.0,STARLINK-3933,PAYLOAD,2023-05-30 13:26:13,15.08836582,0.0001036,53.2188,1.7249,85.9926,274.1184,5.1191e-05,5.27e-06,0.0,0 STARLINK-3933,1 52538U 22051F   23150.55987493  .00000527  00000-0  51191-4 0  9999,2 52538  53.2188   1.7249 0001036  85.9926 274.1184 15.08836582 58347,6917.891,95.438,540.473,539.039,0.0
52538.0,STARLINK-3933,PAYLOAD,2023-05-30 21:23:09,15.08817852,0.0001218,53.219,0.2387,96.1128,264.0003,0.0003767,5.709e-05,0.0,0 STARLINK-3933,1 52538U 22051F   23150.89107772  .00005709  00000-0  37670-3 0  9992,2 52538  53.2190   0.2387 0001218  96.1128 264.0003 15.08817852 58399,6917.948,95.439,540.656,538.97,0.0
52538.0,STARLINK-3933,PAYLOAD,2023-05-31 18:03:09,15.08838348,9.92e-05,53.2186,356.3724,93.7152,266.3954,0.00011233,1.5e-05,0.0,0 STARLINK-3933,1 52538U 22051F   23151.75219410  .00001500  00000-0  11233-3 0  9993,2 52538  53.2186 356.3724 0000992  93.7152 266.3954 15.08838348 58597,6917.885,95.438,540.437,539.064,0.0
52538.0,STARLINK-3933,PAYLOAD,2023-05-31 21:13:55,15.08842427,0.0001039,53.2185,355.7778,94.0141,266.097,0.00014809,2.07e-05,0.0,0 STARLINK-3933,1 52538U 22051F   23151.88467091  .00002070  00000-0  14809-3 0  9992,2 52538  53.2185 355.7778 0001039  94.0141 266.0970 15.08842427 58546,6917.873,95.437,540.457,539.019,0.0
